{
  "type": "FeatureCollection",
  "features": [
    {
      "type": "Feature",
      "properties": {
        "norad_id": 66661,
        "name": "SNUGLITE-III",
        "group": "last-30-days",
        "lat": 67.4968934576635,
        "lon": -106.70624719628726,
        "alt_km": 589.0498386734962,
        "timestamp": "2025-12-11T05:00:25.076390+00:00",
        "meta_object_name": "SNUGLITE-III",
        "meta_object_id": "2025-274M",
        "meta_epoch": "2025-12-10T12:36:56.223072",
        "meta_mean_motion": 14.93078808,
        "meta_eccentricity": 0.0013507,
        "meta_inclination": 97.7386,
        "meta_ra_of_asc_node": 271.7842,
        "meta_arg_of_pericenter": 290.3559,
        "meta_mean_anomaly": 69.6209,
        "meta_ephemeris_type": 0,
        "meta_classification_type": "U",
        "meta_norad_cat_id": 66661,
        "meta_element_set_no": 999,
        "meta_rev_at_epoch": 207,
        "meta_bstar": 0.00034929,
        "meta_mean_motion_dot": 3.587e-05,
        "meta_mean_motion_ddot": 0,
        "tle_line1": "1 66661U 25274M   25344.52565073  .00003587  00000+0  34929-3 0  9998",
        "tle_line2": "2 66661  97.7386 271.7842 0013507 290.3559  69.6209 14.93078808  2076"
      },
      "geometry": {
        "type": "Point",
        "coordinates": [
          -106.70624719628726,
          67.4968934576635
        ]
      }
    },
    {
      "type": "Feature",
      "properties": {
        "norad_id": 66662,
        "name": "2025-274N",
        "group": "last-30-days",
        "lat": 70.35256668897327,
        "lon": -109.93096031388005,
        "alt_km": 589.2486007231655,
        "timestamp": "2025-12-11T05:00:25.076401+00:00",
        "meta_object_name": "2025-274N",
        "meta_object_id": "2025-274N",
        "meta_epoch": "2025-12-10T17:25:38.821728",
        "meta_mean_motion": 14.93130127,
        "meta_eccentricity": 0.0013923,
        "meta_inclination": 97.7385,
        "meta_ra_of_asc_node": 271.9829,
        "meta_arg_of_pericenter": 289.1745,
        "meta_mean_anomaly": 70.7968,
        "meta_ephemeris_type": 0,
        "meta_classification_type": "U",
        "meta_norad_cat_id": 66662,
        "meta_element_set_no": 999,
        "meta_rev_at_epoch": 210,
        "meta_bstar": 0.00037810849,
        "meta_mean_motion_dot": 3.894e-05,
        "meta_mean_motion_ddot": 0,
        "tle_line1": "1 66662U 25274N   25344.72614377  .00003894  00000+0  37811-3 0  9997",
        "tle_line2": "2 66662  97.7385 271.9829 0013923 289.1745  70.7968 14.93130127  2100"
      },
      "geometry": {
        "type": "Point",
        "coordinates": [
          -109.93096031388005,
          70.35256668897327
        ]
      }
    },
    {
      "type": "Feature",
      "properties": {
        "norad_id": 66663,
        "name": "KSLV-II R/B",
        "group": "last-30-days",
        "lat": -67.516530400546,
        "lon": -68.24816137452002,
        "alt_km": 552.6811451323101,
        "timestamp": "2025-12-11T05:00:25.076413+00:00",
        "meta_object_name": "KSLV-II R/B",
        "meta_object_id": "2025-274P",
        "meta_epoch": "2025-12-10T16:28:46.841664",
        "meta_mean_motion": 14.97260202,
        "meta_eccentricity": 0.00515006,
        "meta_inclination": 97.7409,
        "meta_ra_of_asc_node": 272.0473,
        "meta_arg_of_pericenter": 326.4324,
        "meta_mean_anomaly": 33.3638,
        "meta_ephemeris_type": 0,
        "meta_classification_type": "U",
        "meta_norad_cat_id": 66663,
        "meta_element_set_no": 999,
        "meta_rev_at_epoch": 210,
        "meta_bstar": 0.00042412813,
        "meta_mean_motion_dot": 4.986e-05,
        "meta_mean_motion_ddot": 0,
        "tle_line1": "1 66663U 25274P   25344.68665326  .00004986  00000+0  42413-3 0  9990",
        "tle_line2": "2 66663  97.7409 272.0473 0051500 326.4324  33.3638 14.97260202  2107"
      },
      "geometry": {
        "type": "Point",
        "coordinates": [
          -68.24816137452002,
          -67.516530400546
        ]
      }
    },
    {
      "type": "Feature",
      "properties": {
        "norad_id": 66664,
        "name": "SOYUZ-MS 28",
        "group": "last-30-days",
        "lat": 41.49794429615538,
        "lon": -74.43917388568786,
        "alt_km": 413.398223865157,
        "timestamp": "2025-12-11T05:00:25.076429+00:00",
        "meta_object_name": "SOYUZ-MS 28",
        "meta_object_id": "2025-275A",
        "meta_epoch": "2025-12-10T22:17:24.112320",
        "meta_mean_motion": 15.49489378,
        "meta_eccentricity": 0.00033509,
        "meta_inclination": 51.6309,
        "meta_ra_of_asc_node": 151.4463,
        "meta_arg_of_pericenter": 232.8214,
        "meta_mean_anomaly": 127.2469,
        "meta_ephemeris_type": 0,
        "meta_classification_type": "U",
        "meta_norad_cat_id": 66664,
        "meta_element_set_no": 999,
        "meta_rev_at_epoch": 128,
        "meta_bstar": 0.00026508679,
        "meta_mean_motion_dot": 0.00014434,
        "meta_mean_motion_ddot": 0,
        "tle_line1": "1 66664U 25275A   25344.92875130  .00014434  00000+0  26509-3 0  9992",
        "tle_line2": "2 66664  51.6309 151.4463 0003350 232.8214 127.2469 15.49489378  1281"
      },
      "geometry": {
        "type": "Point",
        "coordinates": [
          -74.43917388568786,
          41.49794429615538
        ]
      }
    },
    {
      "type": "Feature",
      "properties": {
        "norad_id": 66791,
        "name": "STARLINK-35867",
        "group": "last-30-days",
        "lat": -41.2939373903736,
        "lon": 152.11300495246434,
        "alt_km": 302.28061315171544,
        "timestamp": "2025-12-11T05:00:25.076441+00:00",
        "meta_object_name": "STARLINK-35867",
        "meta_object_id": "2025-278A",
        "meta_epoch": "2025-12-10T12:00:02.999808",
        "meta_mean_motion": 15.92323354,
        "meta_eccentricity": 0.00019485,
        "meta_inclination": 42.9987,
        "meta_ra_of_asc_node": 266.0188,
        "meta_arg_of_pericenter": 267.709,
        "meta_mean_anomaly": 243.0586,
        "meta_ephemeris_type": 0,
        "meta_classification_type": "U",
        "meta_norad_cat_id": 66791,
        "meta_element_set_no": 999,
        "meta_rev_at_epoch": 259,
        "meta_bstar": -0.0036396018,
        "meta_mean_motion_dot": -0.01271679,
        "meta_mean_motion_ddot": 0.00047034342,
        "tle_line1": "1 66791U 25278A   25344.50003472 -.01271679  47034-3 -36396-2 0  9997",
        "tle_line2": "2 66791  42.9987 266.0188 0001948 267.7090 243.0586 15.92323354  2595"
      },
      "geometry": {
        "type": "Point",
        "coordinates": [
          152.11300495246434,
          -41.2939373903736
        ]
      }
    },
    {
      "type": "Feature",
      "properties": {
        "norad_id": 66792,
        "name": "STARLINK-35990",
        "group": "last-30-days",
        "lat": -41.61825912774721,
        "lon": 154.0608704215376,
        "alt_km": 302.17867273868706,
        "timestamp": "2025-12-11T05:00:25.076452+00:00",
        "meta_object_name": "STARLINK-35990",
        "meta_object_id": "2025-278B",
        "meta_epoch": "2025-12-10T12:00:02.999808",
        "meta_mean_motion": 15.92349849,
        "meta_eccentricity": 0.0001923,
        "meta_inclination": 42.9985,
        "meta_ra_of_asc_node": 266.0152,
        "meta_arg_of_pericenter": 268.6025,
        "meta_mean_anomaly": 243.57,
        "meta_ephemeris_type": 0,
        "meta_classification_type": "U",
        "meta_norad_cat_id": 66792,
        "meta_element_set_no": 999,
        "meta_rev_at_epoch": 259,
        "meta_bstar": -0.0035885767,
        "meta_mean_motion_dot": -0.01255752,
        "meta_mean_motion_ddot": 0.00045973908,
        "tle_line1": "1 66792U 25278B   25344.50003472 -.01255752  45974-3 -35886-2 0  9996",
        "tle_line2": "2 66792  42.9985 266.0152 0001923 268.6025 243.5700 15.92349849  2596"
      },
      "geometry": {
        "type": "Point",
        "coordinates": [
          154.0608704215376,
          -41.61825912774721
        ]
      }
    },
    {
      "type": "Feature",
      "properties": {
        "norad_id": 66793,
        "name": "STARLINK-36051",
        "group": "last-30-days",
        "lat": -42.445328639644124,
        "lon": 160.5686586795794,
        "alt_km": 301.9302798308436,
        "timestamp": "2025-12-11T05:00:25.076462+00:00",
        "meta_object_name": "STARLINK-36051",
        "meta_object_id": "2025-278C",
        "meta_epoch": "2025-12-10T12:00:02.999808",
        "meta_mean_motion": 15.92451421,
        "meta_eccentricity": 0.00019083,
        "meta_inclination": 42.9988,
        "meta_ra_of_asc_node": 266.0034,
        "meta_arg_of_pericenter": 263.5448,
        "meta_mean_anomaly": 253.3065,
        "meta_ephemeris_type": 0,
        "meta_classification_type": "U",
        "meta_norad_cat_id": 66793,
        "meta_element_set_no": 999,
        "meta_rev_at_epoch": 249,
        "meta_bstar": -0.0036094995,
        "meta_mean_motion_dot": -0.01269649,
        "meta_mean_motion_ddot": 0.00046955413,
        "tle_line1": "1 66793U 25278C   25344.50003472 -.01269649  46955-3 -36095-2 0  9990",
        "tle_line2": "2 66793  42.9988 266.0034 0001908 263.5448 253.3065 15.92451421  2497"
      },
      "geometry": {
        "type": "Point",
        "coordinates": [
          160.5686586795794,
          -42.445328639644124
        ]
      }
    }
  ]
}